{
    "links": {
        "self": "http://www.neowsapp.com/rest/v1/neo/3510599?api_key=iIulBulltgU6a56xZRHN4H3l9WmuAYTsLGpBGhQ2"
    },
    "id": "3510599",
    "neo_reference_id": "3510599",
    "name": "(2010 DH56)",
    "designation": "2010 DH56",
    "nasa_jpl_url": "http://ssd.jpl.nasa.gov/sbdb.cgi?sstr=3510599",
    "absolute_magnitude_h": 20.3,
    "estimated_diameter": {
        "kilometers": {
            "estimated_diameter_min": 0.2315021222,
            "estimated_diameter_max": 0.5176544822
        },
        "meters": {
            "estimated_diameter_min": 231.5021222103,
            "estimated_diameter_max": 517.6544821978
        },
        "miles": {
            "estimated_diameter_min": 0.1438487052,
            "estimated_diameter_max": 0.3216554833
        },
        "feet": {
            "estimated_diameter_min": 759.5214226325,
            "estimated_diameter_max": 1698.3415313737
        }
    },
    "is_potentially_hazardous_asteroid": false,
    "close_approach_data": [
        {
            "close_approach_date": "2000-06-18",
            "close_approach_date_full": "2000-Jun-18 21:15",
            "epoch_date_close_approach": 961362900000,
            "relative_velocity": {
                "kilometers_per_second": "22.0303104148",
                "kilometers_per_hour": "79309.117493136",
                "miles_per_hour": "49279.6013667766"
            },
            "miss_distance": {
                "astronomical": "0.3710787532",
                "lunar": "144.3496349948",
                "kilometers": "55512591.080975684",
                "miles": "34493924.5931810792"
            },
            "orbiting_body": "Earth"
        },
        {
            "close_approach_date": "2010-06-24",
            "close_approach_date_full": "2010-Jun-24 01:53",
            "epoch_date_close_approach": 1277344380000,
            "relative_velocity": {
                "kilometers_per_second": "25.4093004623",
                "kilometers_per_hour": "91473.4816642998",
                "miles_per_hour": "56838.0642041312"
            },
            "miss_distance": {
                "astronomical": "0.4520493333",
                "lunar": "175.8471906537",
                "kilometers": "67625617.396600071",
                "miles": "42020610.1286641398"
            },
            "orbiting_body": "Earth"
        }
    ],
    "orbital_data": {
        "orbit_id": "10",
        "orbit_determination_date": "2018-10-03 14:00:59",
        "first_observation_date": "2010-02-20",
        "last_observation_date": "2010-04-05",
        "data_arc_in_days": 44,
        "observations_used": 26,
        "orbit_uncertainty": "7",
        "minimum_orbit_intersection": ".334031",
        "jupiter_tisserand_invariant": "3.225",
        "epoch_osculation": "2459000.5",
        "eccentricity": ".5661264766044407",
        "semi_major_axis": "2.237689612975267",
        "inclination": "33.66480368460428",
        "ascending_node_longitude": "285.796736751201",
        "orbital_period": "1222.638861758579",
        "perihelion_distance": ".9708742766472247",
        "perihelion_argument": "267.0261208942896",
        "aphelion_distance": "3.50450494930331",
        "perihelion_time": "2458983.914069276299",
        "mean_anomaly": "4.883645733249532",
        "mean_motion": ".2944450820761537",
        "equinox": "J2000",
        "orbit_class": {
            "orbit_class_type": "APO",
            "orbit_class_description": "Near-Earth asteroid orbits which cross the Earth’s orbit similar to that of 1862 Apollo",
            "orbit_class_range": "a (semi-major axis) > 1.0 AU; q (perihelion) < 1.017 AU"
        }
    },
    "is_sentry_object": false
}